[{"OBJECT_NAME":"ONEWEB-0435","OBJECT_ID":"2022-012L","EPOCH":"2026-05-28T04:33:28.690560","MEAN_MOTION":13.10373914,"ECCENTRICITY":0.0001688,"INCLINATION":87.8849,"RA_OF_ASC_NODE":40.2599,"ARG_OF_PERICENTER":73.7407,"MEAN_ANOMALY":286.3906,"EPHEMERIS_TYPE":0,"CLASSIFICATION_TYPE":"U","NORAD_CAT_ID":51632,"ELEMENT_SET_NO":999,"REV_AT_EPOCH":20669,"BSTAR":-0.0021442,"MEAN_MOTION_DOT":-7.36e-06,"MEAN_MOTION_DDOT":0.0},{"OBJECT_NAME":"ONEWEB-0436","OBJECT_ID":"2022-012M","EPOCH":"2026-05-28T03:57:41.704992","MEAN_MOTION":13.1765061,"ECCENTRICITY":0.0001642,"INCLINATION":87.9158,"RA_OF_ASC_NODE":9.826,"ARG_OF_PERICENTER":79.5878,"MEAN_ANOMALY":280.5439,"EPHEMERIS_TYPE":0,"CLASSIFICATION_TYPE":"U","NORAD_CAT_ID":51633,"ELEMENT_SET_NO":999,"REV_AT_EPOCH":21104,"BSTAR":0.00013370000000000002,"MEAN_MOTION_DOT":6.5e-07,"MEAN_MOTION_DDOT":0.0},{"OBJECT_NAME":"ONEWEB-0438","OBJECT_ID":"2022-012N","EPOCH":"2026-05-28T05:59:32.870400","MEAN_MOTION":13.10370694,"ECCENTRICITY":0.000197,"INCLINATION":87.8847,"RA_OF_ASC_NODE":40.2502,"ARG_OF_PERICENTER":81.9196,"MEAN_ANOMALY":278.2155,"EPHEMERIS_TYPE":0,"CLASSIFICATION_TYPE":"U","NORAD_CAT_ID":51634,"ELEMENT_SET_NO":999,"REV_AT_EPOCH":20673,"BSTAR":-0.00032122,"MEAN_MOTION_DOT":-9.9e-07,"MEAN_MOTION_DDOT":0.0},{"OBJECT_NAME":"ONEWEB-0439","OBJECT_ID":"2022-012P","EPOCH":"2026-05-28T06:04:19.369344","MEAN_MOTION":13.10371135,"ECCENTRICITY":0.0001891,"INCLINATION":87.8846,"RA_OF_ASC_NODE":40.2374,"ARG_OF_PERICENTER":77.2865,"MEAN_ANOMALY":282.8474,"EPHEMERIS_TYPE":0,"CLASSIFICATION_TYPE":"U","NORAD_CAT_ID":51635,"ELEMENT_SET_NO":999,"REV_AT_EPOCH":20671,"BSTAR":-0.00096678,"MEAN_MOTION_DOT":-3.25e-06,"MEAN_MOTION_DDOT":0.0},{"OBJECT_NAME":"ONEWEB-0442","OBJECT_ID":"2022-012Q","EPOCH":"2026-05-28T03:46:45.272352","MEAN_MOTION":13.17646987,"ECCENTRICITY":0.0002321,"INCLINATION":87.9155,"RA_OF_ASC_NODE":9.8616,"ARG_OF_PERICENTER":91.6089,"MEAN_ANOMALY":268.5309,"EPHEMERIS_TYPE":0,"CLASSIFICATION_TYPE":"U","NORAD_CAT_ID":51636,"ELEMENT_SET_NO":999,"REV_AT_EPOCH":21103,"BSTAR":-0.00011063,"MEAN_MOTION_DOT":-3e-07,"MEAN_MOTION_DDOT":0.0},{"OBJECT_NAME":"ONEWEB-0443","OBJECT_ID":"2022-012R","EPOCH":"2026-05-28T04:14:41.513568","MEAN_MOTION":13.17648214,"ECCENTRICITY":0.0002074,"INCLINATION":87.915,"RA_OF_ASC_NODE":9.8595,"ARG_OF_PERICENTER":76.5868,"MEAN_ANOMALY":283.5494,"EPHEMERIS_TYPE":0,"CLASSIFICATION_TYPE":"U","NORAD_CAT_ID":51637,"ELEMENT_SET_NO":999,"REV_AT_EPOCH":21108,"BSTAR":-2.5859e-05,"MEAN_MOTION_DOT":3e-08,"MEAN_MOTION_DDOT":0.0},{"OBJECT_NAME":"ONEWEB-0444","OBJECT_ID":"2022-012S","EPOCH":"2026-05-28T05:49:59.677248","MEAN_MOTION":13.10370246,"ECCENTRICITY":0.0001945,"INCLINATION":87.8846,"RA_OF_ASC_NODE":40.238,"ARG_OF_PERICENTER":76.9821,"MEAN_ANOMALY":283.1523,"EPHEMERIS_TYPE":0,"CLASSIFICATION_TYPE":"U","NORAD_CAT_ID":51638,"ELEMENT_SET_NO":999,"REV_AT_EPOCH":20672,"BSTAR":0.00047785,"MEAN_MOTION_DOT":1.79e-06,"MEAN_MOTION_DDOT":0.0},{"OBJECT_NAME":"ONEWEB-0445","OBJECT_ID":"2022-012T","EPOCH":"2026-05-28T04:31:05.241504","MEAN_MOTION":13.10372749,"ECCENTRICITY":0.0001678,"INCLINATION":87.8859,"RA_OF_ASC_NODE":40.2352,"ARG_OF_PERICENTER":86.2033,"MEAN_ANOMALY":273.9286,"EPHEMERIS_TYPE":0,"CLASSIFICATION_TYPE":"U","NORAD_CAT_ID":51639,"ELEMENT_SET_NO":999,"REV_AT_EPOCH":20672,"BSTAR":-0.0018009,"MEAN_MOTION_DOT":-6.16e-06,"MEAN_MOTION_DDOT":0.0},{"OBJECT_NAME":"ONEWEB-0446","OBJECT_ID":"2022-012U","EPOCH":"2026-05-28T05:47:36.266208","MEAN_MOTION":13.10371212,"ECCENTRICITY":0.0001756,"INCLINATION":87.8847,"RA_OF_ASC_NODE":40.255,"ARG_OF_PERICENTER":85.1688,"MEAN_ANOMALY":274.964,"EPHEMERIS_TYPE":0,"CLASSIFICATION_TYPE":"U","NORAD_CAT_ID":51640,"ELEMENT_SET_NO":999,"REV_AT_EPOCH":20671,"BSTAR":0.0007239,"MEAN_MOTION_DOT":2.65e-06,"MEAN_MOTION_DDOT":0.0},{"OBJECT_NAME":"ONEWEB-0448","OBJECT_ID":"2022-012V","EPOCH":"2026-05-28T05:54:46.236672","MEAN_MOTION":13.10369379,"ECCENTRICITY":0.0001852,"INCLINATION":87.8845,"RA_OF_ASC_NODE":40.251,"ARG_OF_PERICENTER":77.3831,"MEAN_ANOMALY":282.7503,"EPHEMERIS_TYPE":0,"CLASSIFICATION_TYPE":"U","NORAD_CAT_ID":51641,"ELEMENT_SET_NO":999,"REV_AT_EPOCH":20668,"BSTAR":3.2732000000000004e-05,"MEAN_MOTION_DOT":2.4e-07,"MEAN_MOTION_DDOT":0.0},{"OBJECT_NAME":"ONEWEB-0449","OBJECT_ID":"2022-012W","EPOCH":"2026-05-28T06:01:56.229600","MEAN_MOTION":13.1037121,"ECCENTRICITY":0.0002267,"INCLINATION":87.8848,"RA_OF_ASC_NODE":40.2349,"ARG_OF_PERICENTER":82.5555,"MEAN_ANOMALY":277.583,"EPHEMERIS_TYPE":0,"CLASSIFICATION_TYPE":"U","NORAD_CAT_ID":51642,"ELEMENT_SET_NO":999,"REV_AT_EPOCH":20669,"BSTAR":-0.0006133499999999999,"MEAN_MOTION_DOT":-2.01e-06,"MEAN_MOTION_DDOT":0.0},{"OBJECT_NAME":"ONEWEB-0451","OBJECT_ID":"2022-012X","EPOCH":"2026-05-28T03:52:50.984544","MEAN_MOTION":13.17649781,"ECCENTRICITY":0.0002066,"INCLINATION":87.9163,"RA_OF_ASC_NODE":9.824,"ARG_OF_PERICENTER":85.2501,"MEAN_ANOMALY":274.8866,"EPHEMERIS_TYPE":0,"CLASSIFICATION_TYPE":"U","NORAD_CAT_ID":51643,"ELEMENT_SET_NO":999,"REV_AT_EPOCH":21102,"BSTAR":0.0001418,"MEAN_MOTION_DOT":6.8e-07,"MEAN_MOTION_DDOT":0.0},{"OBJECT_NAME":"ONEWEB-0452","OBJECT_ID":"2022-012Y","EPOCH":"2026-05-28T03:50:24.597888","MEAN_MOTION":13.17649793,"ECCENTRICITY":0.0002079,"INCLINATION":87.9152,"RA_OF_ASC_NODE":9.863,"ARG_OF_PERICENTER":79.1996,"MEAN_ANOMALY":280.937,"EPHEMERIS_TYPE":0,"CLASSIFICATION_TYPE":"U","NORAD_CAT_ID":51644,"ELEMENT_SET_NO":999,"REV_AT_EPOCH":21103,"BSTAR":1.5984e-05,"MEAN_MOTION_DOT":1.9e-07,"MEAN_MOTION_DDOT":0.0},{"OBJECT_NAME":"ONEWEB-0456","OBJECT_ID":"2022-012AA","EPOCH":"2026-05-28T04:26:19.442400","MEAN_MOTION":13.10377466,"ECCENTRICITY":0.0001722,"INCLINATION":87.886,"RA_OF_ASC_NODE":40.2337,"ARG_OF_PERICENTER":74.5375,"MEAN_ANOMALY":285.5942,"EPHEMERIS_TYPE":0,"CLASSIFICATION_TYPE":"U","NORAD_CAT_ID":51646,"ELEMENT_SET_NO":999,"REV_AT_EPOCH":20672,"BSTAR":-0.0017423,"MEAN_MOTION_DOT":-5.96e-06,"MEAN_MOTION_DDOT":0.0},{"OBJECT_NAME":"ONEWEB-0457","OBJECT_ID":"2022-012AB","EPOCH":"2026-05-28T05:42:35.964000","MEAN_MOTION":13.10369201,"ECCENTRICITY":0.0001926,"INCLINATION":87.8848,"RA_OF_ASC_NODE":40.2432,"ARG_OF_PERICENTER":93.5334,"MEAN_ANOMALY":266.6014,"EPHEMERIS_TYPE":0,"CLASSIFICATION_TYPE":"U","NORAD_CAT_ID":51647,"ELEMENT_SET_NO":999,"REV_AT_EPOCH":20673,"BSTAR":0.0012114,"MEAN_MOTION_DOT":4.36e-06,"MEAN_MOTION_DDOT":0.0},{"OBJECT_NAME":"ONEWEB-0458","OBJECT_ID":"2022-012AC","EPOCH":"2026-05-28T06:13:52.517568","MEAN_MOTION":13.1037154,"ECCENTRICITY":0.0001982,"INCLINATION":87.8859,"RA_OF_ASC_NODE":40.2254,"ARG_OF_PERICENTER":78.3014,"MEAN_ANOMALY":281.8336,"EPHEMERIS_TYPE":0,"CLASSIFICATION_TYPE":"U","NORAD_CAT_ID":51648,"ELEMENT_SET_NO":999,"REV_AT_EPOCH":20669,"BSTAR":-0.0016352,"MEAN_MOTION_DOT":-5.58e-06,"MEAN_MOTION_DDOT":0.0},{"OBJECT_NAME":"ONEWEB-0461","OBJECT_ID":"2022-012AD","EPOCH":"2026-05-28T02:32:38.443200","MEAN_MOTION":13.17650775,"ECCENTRICITY":0.000179,"INCLINATION":87.9159,"RA_OF_ASC_NODE":9.8493,"ARG_OF_PERICENTER":88.3164,"MEAN_ANOMALY":271.8173,"EPHEMERIS_TYPE":0,"CLASSIFICATION_TYPE":"U","NORAD_CAT_ID":51649,"ELEMENT_SET_NO":999,"REV_AT_EPOCH":21124,"BSTAR":1.0951e-05,"MEAN_MOTION_DOT":1.7e-07,"MEAN_MOTION_DDOT":0.0}]