ONEWEB-0435             
1 51632U 22012L   26148.18991540 -.00000736  00000+0 -21442-2 0  9994
2 51632  87.8849  40.2599 0001688  73.7407 286.3906 13.10373914206692
ONEWEB-0436             
1 51633U 22012M   26148.16506603  .00000065  00000+0  13370-3 0  9990
2 51633  87.9158   9.8260 0001642  79.5878 280.5439 13.17650610211049
ONEWEB-0438             
1 51634U 22012N   26148.24968600 -.00000099  00000+0 -32122-3 0  9994
2 51634  87.8847  40.2502 0001970  81.9196 278.2155 13.10370694206739
ONEWEB-0439             
1 51635U 22012P   26148.25300196 -.00000325  00000+0 -96678-3 0  9994
2 51635  87.8846  40.2374 0001891  77.2865 282.8474 13.10371135206713
ONEWEB-0442             
1 51636U 22012Q   26148.15746843 -.00000030  00000+0 -11063-3 0  9995
2 51636  87.9155   9.8616 0002321  91.6089 268.5309 13.17646987211031
ONEWEB-0443             
1 51637U 22012R   26148.17686937  .00000003  00000+0 -25859-4 0  9993
2 51637  87.9150   9.8595 0002074  76.5868 283.5494 13.17648214211087
ONEWEB-0444             
1 51638U 22012S   26148.24305182  .00000179  00000+0  47785-3 0  9996
2 51638  87.8846  40.2380 0001945  76.9821 283.1523 13.10370246206723
ONEWEB-0445             
1 51639U 22012T   26148.18825511 -.00000616  00000+0 -18009-2 0  9997
2 51639  87.8859  40.2352 0001678  86.2033 273.9286 13.10372749206722
ONEWEB-0446             
1 51640U 22012U   26148.24139197  .00000265  00000+0  72390-3 0  9996
2 51640  87.8847  40.2550 0001756  85.1688 274.9640 13.10371212206710
ONEWEB-0448             
1 51641U 22012V   26148.24636848  .00000024  00000+0  32732-4 0  9992
2 51641  87.8845  40.2510 0001852  77.3831 282.7503 13.10369379206687
ONEWEB-0449             
1 51642U 22012W   26148.25134525 -.00000201  00000+0 -61335-3 0  9998
2 51642  87.8848  40.2349 0002267  82.5555 277.5830 13.10371210206696
ONEWEB-0451             
1 51643U 22012X   26148.16170121  .00000068  00000+0  14180-3 0  9996
2 51643  87.9163   9.8240 0002066  85.2501 274.8866 13.17649781211027
ONEWEB-0452             
1 51644U 22012Y   26148.16000692  .00000019  00000+0  15984-4 0  9992
2 51644  87.9152   9.8630 0002079  79.1996 280.9370 13.17649793211035
ONEWEB-0456             
1 51646U 22012AA  26148.18494725 -.00000596  00000+0 -17423-2 0  9990
2 51646  87.8860  40.2337 0001722  74.5375 285.5942 13.10377466206723
ONEWEB-0457             
1 51647U 22012AB  26148.23791625  .00000436  00000+0  12114-2 0  9999
2 51647  87.8848  40.2432 0001926  93.5334 266.6014 13.10369201206737
ONEWEB-0458             
1 51648U 22012AC  26148.25963562 -.00000558  00000+0 -16352-2 0  9998
2 51648  87.8859  40.2254 0001982  78.3014 281.8336 13.10371540206690
ONEWEB-0461             
1 51649U 22012AD  26148.10600050  .00000017  00000+0  10951-4 0  9992
2 51649  87.9159   9.8493 0001790  88.3164 271.8173 13.17650775211247
